ONEWEB-0358             
1 49284U 21090F   25302.50099744  .00000008  00000+0 -12710-4 0  9992
2 49284  87.9205 320.4415 0001788  90.9476 269.1862 13.20772037200107
ONEWEB-0359             
1 49285U 21090G   25302.49782750  .00000078  00000+0  15891-3 0  9995
2 49285  87.9194 320.4451 0001953  83.2132 276.9223 13.20770319200088
ONEWEB-0360             
1 49286U 21090H   25302.48835485  .00000152  00000+0  34087-3 0  9990
2 49286  87.9187 320.4552 0001885  87.8457 272.2892 13.20769731199395
ONEWEB-0361             
1 49287U 21090J   25302.46941446  .00000978  00000+0  23722-2 0  9993
2 49287  87.9193 320.4554 0001810  93.6916 266.4425 13.20780140199842
ONEWEB-0362             
1 49288U 21090K   25302.39091626  .00000104  00000+0  22845-3 0  9999
2 49288  87.9237 350.9088 0002143  97.8437 262.2939 13.19725320196473
ONEWEB-0363             
1 49289U 21090L   25302.48519369  .00000113  00000+0  24636-3 0  9999
2 49289  87.9192 320.4483 0001477  89.3381 270.7921 13.20771552199858
ONEWEB-0364             
1 49290U 21090M   25302.52307088  .00000021  00000+0  20185-4 0  9993
2 49290  87.9195 320.4667 0001752  94.2125 265.9208 13.20770423200992
ONEWEB-0365             
1 49291U 21090N   25302.40039388  .00000145  00000+0  32946-3 0  9990
2 49291  87.9250 350.8653 0001983  99.7595 260.3762 13.19725867195980
ONEWEB-0366             
1 49292U 21090P   25302.49453220 -.00000057  00000+0 -18955-3 0  9993
2 49292  87.9010 335.6799 0001800  94.6836 265.4500 13.14503084197255
ONEWEB-0367             
1 49293U 21090Q   25302.48363752  .00000108  00000+0  23347-3 0  9999
2 49293  87.9200 320.4457 0002061  94.4157 265.7211 13.20771835199379
ONEWEB-0368             
1 49294U 21090R   25302.45680659 -.00000033  00000+0 -11252-3 0  9996
2 49294  87.9190 320.4843 0001494 119.6892 240.4390 13.20771222200520
ONEWEB-0369             
1 49295U 21090S   25301.41003485  .00000061  00000+0  12129-3 0  9991
2 49295  87.9245 351.0926 0001929 100.3304 259.8047 13.19724952195849
ONEWEB-0370             
1 49296U 21090T   25302.49310728  .00000420  00000+0  10018-2 0  9995
2 49296  87.9198 320.4518 0001941  84.0109 276.1246 13.20769735199419
ONEWEB-0371             
1 49297U 21090U   25302.40355514  .00000108  00000+0  23737-3 0  9995
2 49297  87.9243 350.8826 0002016  98.5768 261.5593 13.19725516196018
ONEWEB-0372             
1 49298U 21090V   25302.48192062  .00000097  00000+0  20709-3 0  9994
2 49298  87.9192 320.4552 0001881  96.0038 264.1310 13.20770861199387
ONEWEB-0373             
1 49299U 21090W   25302.50888370  .00000013  00000+0  73484-6 0  9991
2 49299  87.9191 320.4632 0001839  91.3178 268.8166 13.20771038200573
ONEWEB-0374             
1 49300U 21090X   25302.48183534  .00000181  00000+0  45303-3 0  9993
2 49300  87.9014 335.6582 0001301 101.2796 258.8480 13.14501013197258
