[{"OBJECT_NAME":"ONEWEB-0358","OBJECT_ID":"2021-090F","EPOCH":"2025-10-29T12:01:26.178816","MEAN_MOTION":13.20772037,"ECCENTRICITY":0.0001788,"INCLINATION":87.9205,"RA_OF_ASC_NODE":320.4415,"ARG_OF_PERICENTER":90.9476,"MEAN_ANOMALY":269.1862,"EPHEMERIS_TYPE":0,"CLASSIFICATION_TYPE":"U","NORAD_CAT_ID":49284,"ELEMENT_SET_NO":999,"REV_AT_EPOCH":20010,"BSTAR":-1.271e-5,"MEAN_MOTION_DOT":8.0e-8,"MEAN_MOTION_DDOT":0},{"OBJECT_NAME":"ONEWEB-0359","OBJECT_ID":"2021-090G","EPOCH":"2025-10-29T11:56:52.296000","MEAN_MOTION":13.20770319,"ECCENTRICITY":0.0001953,"INCLINATION":87.9194,"RA_OF_ASC_NODE":320.4451,"ARG_OF_PERICENTER":83.2132,"MEAN_ANOMALY":276.9223,"EPHEMERIS_TYPE":0,"CLASSIFICATION_TYPE":"U","NORAD_CAT_ID":49285,"ELEMENT_SET_NO":999,"REV_AT_EPOCH":20008,"BSTAR":0.00015891,"MEAN_MOTION_DOT":7.8e-7,"MEAN_MOTION_DDOT":0},{"OBJECT_NAME":"ONEWEB-0360","OBJECT_ID":"2021-090H","EPOCH":"2025-10-29T11:43:13.859040","MEAN_MOTION":13.20769731,"ECCENTRICITY":0.0001885,"INCLINATION":87.9187,"RA_OF_ASC_NODE":320.4552,"ARG_OF_PERICENTER":87.8457,"MEAN_ANOMALY":272.2892,"EPHEMERIS_TYPE":0,"CLASSIFICATION_TYPE":"U","NORAD_CAT_ID":49286,"ELEMENT_SET_NO":999,"REV_AT_EPOCH":19939,"BSTAR":0.00034087,"MEAN_MOTION_DOT":1.52e-6,"MEAN_MOTION_DDOT":0},{"OBJECT_NAME":"ONEWEB-0361","OBJECT_ID":"2021-090J","EPOCH":"2025-10-29T11:15:57.409344","MEAN_MOTION":13.2078014,"ECCENTRICITY":0.000181,"INCLINATION":87.9193,"RA_OF_ASC_NODE":320.4554,"ARG_OF_PERICENTER":93.6916,"MEAN_ANOMALY":266.4425,"EPHEMERIS_TYPE":0,"CLASSIFICATION_TYPE":"U","NORAD_CAT_ID":49287,"ELEMENT_SET_NO":999,"REV_AT_EPOCH":19984,"BSTAR":0.0023722,"MEAN_MOTION_DOT":9.78e-6,"MEAN_MOTION_DDOT":0},{"OBJECT_NAME":"ONEWEB-0362","OBJECT_ID":"2021-090K","EPOCH":"2025-10-29T09:22:55.164864","MEAN_MOTION":13.1972532,"ECCENTRICITY":0.0002143,"INCLINATION":87.9237,"RA_OF_ASC_NODE":350.9088,"ARG_OF_PERICENTER":97.8437,"MEAN_ANOMALY":262.2939,"EPHEMERIS_TYPE":0,"CLASSIFICATION_TYPE":"U","NORAD_CAT_ID":49288,"ELEMENT_SET_NO":999,"REV_AT_EPOCH":19647,"BSTAR":0.00022845,"MEAN_MOTION_DOT":1.04e-6,"MEAN_MOTION_DDOT":0},{"OBJECT_NAME":"ONEWEB-0363","OBJECT_ID":"2021-090L","EPOCH":"2025-10-29T11:38:40.734816","MEAN_MOTION":13.20771552,"ECCENTRICITY":0.0001477,"INCLINATION":87.9192,"RA_OF_ASC_NODE":320.4483,"ARG_OF_PERICENTER":89.3381,"MEAN_ANOMALY":270.7921,"EPHEMERIS_TYPE":0,"CLASSIFICATION_TYPE":"U","NORAD_CAT_ID":49289,"ELEMENT_SET_NO":999,"REV_AT_EPOCH":19985,"BSTAR":0.00024636,"MEAN_MOTION_DOT":1.13e-6,"MEAN_MOTION_DDOT":0},{"OBJECT_NAME":"ONEWEB-0364","OBJECT_ID":"2021-090M","EPOCH":"2025-10-29T12:33:13.324032","MEAN_MOTION":13.20770423,"ECCENTRICITY":0.0001752,"INCLINATION":87.9195,"RA_OF_ASC_NODE":320.4667,"ARG_OF_PERICENTER":94.2125,"MEAN_ANOMALY":265.9208,"EPHEMERIS_TYPE":0,"CLASSIFICATION_TYPE":"U","NORAD_CAT_ID":49290,"ELEMENT_SET_NO":999,"REV_AT_EPOCH":20099,"BSTAR":2.0185e-5,"MEAN_MOTION_DOT":2.1e-7,"MEAN_MOTION_DDOT":0},{"OBJECT_NAME":"ONEWEB-0365","OBJECT_ID":"2021-090N","EPOCH":"2025-10-29T09:36:34.031232","MEAN_MOTION":13.19725867,"ECCENTRICITY":0.0001983,"INCLINATION":87.925,"RA_OF_ASC_NODE":350.8653,"ARG_OF_PERICENTER":99.7595,"MEAN_ANOMALY":260.3762,"EPHEMERIS_TYPE":0,"CLASSIFICATION_TYPE":"U","NORAD_CAT_ID":49291,"ELEMENT_SET_NO":999,"REV_AT_EPOCH":19598,"BSTAR":0.00032946,"MEAN_MOTION_DOT":1.45e-6,"MEAN_MOTION_DDOT":0},{"OBJECT_NAME":"ONEWEB-0366","OBJECT_ID":"2021-090P","EPOCH":"2025-10-29T11:52:07.582080","MEAN_MOTION":13.14503084,"ECCENTRICITY":0.00018,"INCLINATION":87.901,"RA_OF_ASC_NODE":335.6799,"ARG_OF_PERICENTER":94.6836,"MEAN_ANOMALY":265.45,"EPHEMERIS_TYPE":0,"CLASSIFICATION_TYPE":"U","NORAD_CAT_ID":49292,"ELEMENT_SET_NO":999,"REV_AT_EPOCH":19725,"BSTAR":-0.00018955,"MEAN_MOTION_DOT":-5.7e-7,"MEAN_MOTION_DDOT":0},{"OBJECT_NAME":"ONEWEB-0367","OBJECT_ID":"2021-090Q","EPOCH":"2025-10-29T11:36:26.281728","MEAN_MOTION":13.20771835,"ECCENTRICITY":0.0002061,"INCLINATION":87.92,"RA_OF_ASC_NODE":320.4457,"ARG_OF_PERICENTER":94.4157,"MEAN_ANOMALY":265.7211,"EPHEMERIS_TYPE":0,"CLASSIFICATION_TYPE":"U","NORAD_CAT_ID":49293,"ELEMENT_SET_NO":999,"REV_AT_EPOCH":19937,"BSTAR":0.00023347,"MEAN_MOTION_DOT":1.08e-6,"MEAN_MOTION_DDOT":0},{"OBJECT_NAME":"ONEWEB-0368","OBJECT_ID":"2021-090R","EPOCH":"2025-10-29T10:57:48.089376","MEAN_MOTION":13.20771222,"ECCENTRICITY":0.0001494,"INCLINATION":87.919,"RA_OF_ASC_NODE":320.4843,"ARG_OF_PERICENTER":119.6892,"MEAN_ANOMALY":240.439,"EPHEMERIS_TYPE":0,"CLASSIFICATION_TYPE":"U","NORAD_CAT_ID":49294,"ELEMENT_SET_NO":999,"REV_AT_EPOCH":20052,"BSTAR":-0.00011252,"MEAN_MOTION_DOT":-3.3e-7,"MEAN_MOTION_DDOT":0},{"OBJECT_NAME":"ONEWEB-0369","OBJECT_ID":"2021-090S","EPOCH":"2025-10-28T09:50:27.011040","MEAN_MOTION":13.19724952,"ECCENTRICITY":0.00019298,"INCLINATION":87.9245,"RA_OF_ASC_NODE":351.0926,"ARG_OF_PERICENTER":100.3304,"MEAN_ANOMALY":259.8047,"EPHEMERIS_TYPE":0,"CLASSIFICATION_TYPE":"U","NORAD_CAT_ID":49295,"ELEMENT_SET_NO":999,"REV_AT_EPOCH":19584,"BSTAR":0.00012128536,"MEAN_MOTION_DOT":6.1e-7,"MEAN_MOTION_DDOT":0},{"OBJECT_NAME":"ONEWEB-0370","OBJECT_ID":"2021-090T","EPOCH":"2025-10-29T11:50:04.468992","MEAN_MOTION":13.20769735,"ECCENTRICITY":0.0001941,"INCLINATION":87.9198,"RA_OF_ASC_NODE":320.4518,"ARG_OF_PERICENTER":84.0109,"MEAN_ANOMALY":276.1246,"EPHEMERIS_TYPE":0,"CLASSIFICATION_TYPE":"U","NORAD_CAT_ID":49296,"ELEMENT_SET_NO":999,"REV_AT_EPOCH":19941,"BSTAR":0.0010018,"MEAN_MOTION_DOT":4.2e-6,"MEAN_MOTION_DDOT":0},{"OBJECT_NAME":"ONEWEB-0371","OBJECT_ID":"2021-090U","EPOCH":"2025-10-29T09:41:07.164096","MEAN_MOTION":13.19725516,"ECCENTRICITY":0.0002016,"INCLINATION":87.9243,"RA_OF_ASC_NODE":350.8826,"ARG_OF_PERICENTER":98.5768,"MEAN_ANOMALY":261.5593,"EPHEMERIS_TYPE":0,"CLASSIFICATION_TYPE":"U","NORAD_CAT_ID":49297,"ELEMENT_SET_NO":999,"REV_AT_EPOCH":19601,"BSTAR":0.00023737,"MEAN_MOTION_DOT":1.08e-6,"MEAN_MOTION_DDOT":0},{"OBJECT_NAME":"ONEWEB-0372","OBJECT_ID":"2021-090V","EPOCH":"2025-10-29T11:33:57.941568","MEAN_MOTION":13.20770861,"ECCENTRICITY":0.0001881,"INCLINATION":87.9192,"RA_OF_ASC_NODE":320.4552,"ARG_OF_PERICENTER":96.0038,"MEAN_ANOMALY":264.131,"EPHEMERIS_TYPE":0,"CLASSIFICATION_TYPE":"U","NORAD_CAT_ID":49298,"ELEMENT_SET_NO":999,"REV_AT_EPOCH":19938,"BSTAR":0.00020709,"MEAN_MOTION_DOT":9.7e-7,"MEAN_MOTION_DDOT":0},{"OBJECT_NAME":"ONEWEB-0373","OBJECT_ID":"2021-090W","EPOCH":"2025-10-29T12:12:47.551680","MEAN_MOTION":13.20771038,"ECCENTRICITY":0.0001839,"INCLINATION":87.9191,"RA_OF_ASC_NODE":320.4632,"ARG_OF_PERICENTER":91.3178,"MEAN_ANOMALY":268.8166,"EPHEMERIS_TYPE":0,"CLASSIFICATION_TYPE":"U","NORAD_CAT_ID":49299,"ELEMENT_SET_NO":999,"REV_AT_EPOCH":20057,"BSTAR":7.3484e-7,"MEAN_MOTION_DOT":1.3e-7,"MEAN_MOTION_DDOT":0},{"OBJECT_NAME":"ONEWEB-0374","OBJECT_ID":"2021-090X","EPOCH":"2025-10-29T11:33:50.573376","MEAN_MOTION":13.14501013,"ECCENTRICITY":0.0001301,"INCLINATION":87.9014,"RA_OF_ASC_NODE":335.6582,"ARG_OF_PERICENTER":101.2796,"MEAN_ANOMALY":258.848,"EPHEMERIS_TYPE":0,"CLASSIFICATION_TYPE":"U","NORAD_CAT_ID":49300,"ELEMENT_SET_NO":999,"REV_AT_EPOCH":19725,"BSTAR":0.00045303,"MEAN_MOTION_DOT":1.81e-6,"MEAN_MOTION_DDOT":0}]
